[{"OBJECT_NAME":"ZY-1 02D","OBJECT_ID":"2019-059A","EPOCH":"2026-03-09T22:47:25.027872","MEAN_MOTION":14.35449537,"ECCENTRICITY":0.00025574,"INCLINATION":98.3302,"RA_OF_ASC_NODE":133.9003,"ARG_OF_PERICENTER":74.5944,"MEAN_ANOMALY":285.5525,"EPHEMERIS_TYPE":0,"CLASSIFICATION_TYPE":"U","NORAD_CAT_ID":44528,"ELEMENT_SET_NO":999,"REV_AT_EPOCH":34010,"BSTAR":2.8589968e-5,"MEAN_MOTION_DOT":4.0e-7,"MEAN_MOTION_DDOT":0},{"OBJECT_NAME":"CBERS 1 (ZY 1A)","OBJECT_ID":"1999-057A","EPOCH":"2026-03-09T22:53:47.925888","MEAN_MOTION":14.36960825,"ECCENTRICITY":0.00039532,"INCLINATION":98.8521,"RA_OF_ASC_NODE":75.7067,"ARG_OF_PERICENTER":296.8177,"MEAN_ANOMALY":63.2604,"EPHEMERIS_TYPE":0,"CLASSIFICATION_TYPE":"U","NORAD_CAT_ID":25940,"ELEMENT_SET_NO":999,"REV_AT_EPOCH":38326,"BSTAR":0.00010728341,"MEAN_MOTION_DOT":2.71e-6,"MEAN_MOTION_DDOT":0}]
